{"type": "FeatureCollection", "features": [ {"type": "Feature", "properties": {"norad_id": 40664, "name": "SKY MEXICO-1", "group": "intelsat", "lat": 0.028707835925547452, "lon": 107.07192315205256, "alt_km": 35797.69534607973, "timestamp": "2025-12-11T07:02:23.401689+00:00", "meta": {"OBJECT_NAME": "SKY MEXICO-1", "OBJECT_ID": "2015-026B", "EPOCH": "2025-12-10T20:00:53.878752", "MEAN_MOTION": 1.00270554, "ECCENTRICITY": 0.00027057, "INCLINATION": 0.0312, "RA_OF_ASC_NODE": 71.9734, "ARG_OF_PERICENTER": 204.1974, "MEAN_ANOMALY": 25.0872, "EPHEMERIS_TYPE": 0, "CLASSIFICATION_TYPE": "U", "NORAD_CAT_ID": 40664, "ELEMENT_SET_NO": 999, "REV_AT_EPOCH": 3856, "BSTAR": 0, "MEAN_MOTION_DOT": -2.29e-06, "MEAN_MOTION_DDOT": 0}, "tle": {"line1": "1 40664U 15026B   25344.83395693 -.00000229  00000+0  00000+0 0  9990", "line2": "2 40664   0.0312  71.9734 0002705 204.1974  25.0872  1.00270554 38560"}}, "geometry": {"type": "Point", "coordinates": [107.07192315205256, 0.028707835925547452]}}, {"type": "Feature", "properties": {"norad_id": 40874, "name": "INTELSAT 34 (IS-34)", "group": "intelsat", "lat": 0.00963443709780743, "lon": 130.34359237998413, "alt_km": 35784.91105911494, "timestamp": "2025-12-11T07:02:23.401701+00:00", "meta": {"OBJECT_NAME": "INTELSAT 34 (IS-34)", "OBJECT_ID": "2015-039A", "EPOCH": "2025-12-10T20:07:38.234208", "MEAN_MOTION": 1.00269899, "ECCENTRICITY": 5.026e-05, "INCLINATION": 0.0125, "RA_OF_ASC_NODE": 323.3342, "ARG_OF_PERICENTER": 200.8479, "MEAN_ANOMALY": 162.0354, "EPHEMERIS_TYPE": 0, "CLASSIFICATION_TYPE": "U", "NORAD_CAT_ID": 40874, "ELEMENT_SET_NO": 999, "REV_AT_EPOCH": 3773, "BSTAR": 0, "MEAN_MOTION_DOT": -2.8e-06, "MEAN_MOTION_DDOT": 0}, "tle": {"line1": "1 40874U 15039A   25344.83863697 -.00000280  00000+0  00000+0 0  9998", "line2": "2 40874   0.0125 323.3342 0000502 200.8479 162.0354  1.00269899 37735"}}, "geometry": {"type": "Point", "coordinates": [130.34359237998413, 0.00963443709780743]}}, {"type": "Feature", "properties": {"norad_id": 41581, "name": "INTELSAT 31 (IS-31)", "group": "intelsat", "lat": 0.011457147083247242, "lon": 90.76649993831967, "alt_km": 35791.26135928868, "timestamp": "2025-12-11T07:02:23.401713+00:00", "meta": {"OBJECT_NAME": "INTELSAT 31 (IS-31)", "OBJECT_ID": "2016-035A", "EPOCH": "2025-12-10T19:56:16.821600", "MEAN_MOTION": 1.00271525, "ECCENTRICITY": 0.00020758, "INCLINATION": 0.0162, "RA_OF_ASC_NODE": 271.4826, "ARG_OF_PERICENTER": 304.6035, "MEAN_ANOMALY": 67.7207, "EPHEMERIS_TYPE": 0, "CLASSIFICATION_TYPE": "U", "NORAD_CAT_ID": 41581, "ELEMENT_SET_NO": 999, "REV_AT_EPOCH": 3479, "BSTAR": 0, "MEAN_MOTION_DOT": -1.46e-06, "MEAN_MOTION_DDOT": 0}, "tle": {"line1": "1 41581U 16035A   25344.83075025 -.00000146  00000+0  00000+0 0  9992", "line2": "2 41581   0.0162 271.4826 0002075 304.6035  67.7207  1.00271525 34790"}}, "geometry": {"type": "Point", "coordinates": [90.76649993831967, 0.011457147083247242]}}, {"type": "Feature", "properties": {"norad_id": 41747, "name": "INTELSAT 36 (IS-36)", "group": "intelsat", "lat": -0.028820924462556775, "lon": -105.68103343743685, "alt_km": 35784.06196914761, "timestamp": "2025-12-11T07:02:23.401725+00:00", "meta": {"OBJECT_NAME": "INTELSAT 36 (IS-36)", "OBJECT_ID": "2016-053A", "EPOCH": "2025-12-10T20:42:57.349728", "MEAN_MOTION": 1.00270287, "ECCENTRICITY": 0.00014578, "INCLINATION": 0.0137, "RA_OF_ASC_NODE": 10.9589, "ARG_OF_PERICENTER": 310.1726, "MEAN_ANOMALY": 137.9263, "EPHEMERIS_TYPE": 0, "CLASSIFICATION_TYPE": "U", "NORAD_CAT_ID": 41747, "ELEMENT_SET_NO": 999, "REV_AT_EPOCH": 3406, "BSTAR": 0, "MEAN_MOTION_DOT": -1.9e-07, "MEAN_MOTION_DDOT": 0}, "tle": {"line1": "1 41747U 16053A   25344.86316377 -.00000019  00000+0  00000+0 0  9996", "line2": "2 41747   0.0137  10.9589 0001457 310.1726 137.9263  1.00270287 34066"}}, "geometry": {"type": "Point", "coordinates": [-105.68103343743685, -0.028820924462556775]}}, {"type": "Feature", "properties": {"norad_id": 41945, "name": "INTELSAT 32E (IS-32E)", "group": "intelsat", "lat": 0.030568875785509007, "lon": 142.66653561405212, "alt_km": 35788.31807720303, "timestamp": "2025-12-11T07:02:23.401737+00:00", "meta": {"OBJECT_NAME": "INTELSAT 32E (IS-32E)", "OBJECT_ID": "2017-007B", "EPOCH": "2025-12-10T20:11:07.899360", "MEAN_MOTION": 1.00269594, "ECCENTRICITY": 4.5e-05, "INCLINATION": 0.0329, "RA_OF_ASC_NODE": 78.2617, "ARG_OF_PERICENTER": 277.7793, "MEAN_ANOMALY": 343.3698, "EPHEMERIS_TYPE": 0, "CLASSIFICATION_TYPE": "U", "NORAD_CAT_ID": 41945, "ELEMENT_SET_NO": 999, "REV_AT_EPOCH": 3233, "BSTAR": 0, "MEAN_MOTION_DOT": -2.64e-06, "MEAN_MOTION_DDOT": 0}, "tle": {"line1": "1 41945U 17007B   25344.84106365 -.00000264  00000+0  00000+0 0  9990", "line2": "2 41945   0.0329  78.2617 0000450 277.7793 343.3698  1.00269594 32334"}}, "geometry": {"type": "Point", "coordinates": [142.66653561405212, 0.030568875785509007]}}, {"type": "Feature", "properties": {"norad_id": 42818, "name": "INTELSAT 35E (IS-35E)", "group": "intelsat", "lat": 0.009568622451893513, "lon": 151.31012041993813, "alt_km": 35791.066963166886, "timestamp": "2025-12-11T07:02:23.401749+00:00", "meta": {"OBJECT_NAME": "INTELSAT 35E (IS-35E)", "OBJECT_ID": "2017-041A", "EPOCH": "2025-12-10T20:13:37.659936", "MEAN_MOTION": 1.00269218, "ECCENTRICITY": 0.00022208, "INCLINATION": 0.0174, "RA_OF_ASC_NODE": 351.4146, "ARG_OF_PERICENTER": 276.7006, "MEAN_ANOMALY": 80.5912, "EPHEMERIS_TYPE": 0, "CLASSIFICATION_TYPE": "U", "NORAD_CAT_ID": 42818, "ELEMENT_SET_NO": 999, "REV_AT_EPOCH": 3092, "BSTAR": 0, "MEAN_MOTION_DOT": -2.33e-06, "MEAN_MOTION_DDOT": 0}, "tle": {"line1": "1 42818U 17041A   25344.84279699 -.00000233  00000+0  00000+0 0  9995", "line2": "2 42818   0.0174 351.4146 0002220 276.7006  80.5912  1.00269218 30923"}}, "geometry": {"type": "Point", "coordinates": [151.31012041993813, 0.009568622451893513]}}, {"type": "Feature", "properties": {"norad_id": 42950, "name": "INTELSAT 37E (IS-37E)", "group": "intelsat", "lat": -0.008403267825045265, "lon": 167.80247921258942, "alt_km": 35788.950958402114, "timestamp": "2025-12-11T07:02:23.401760+00:00", "meta": {"OBJECT_NAME": "INTELSAT 37E (IS-37E)", "OBJECT_ID": "2017-059A", "EPOCH": "2025-12-10T20:18:14.717088", "MEAN_MOTION": 1.00264813, "ECCENTRICITY": 0.00032474, "INCLINATION": 0.0189, "RA_OF_ASC_NODE": 332.7984, "ARG_OF_PERICENTER": 288.7802, "MEAN_ANOMALY": 104.7992, "EPHEMERIS_TYPE": 0, "CLASSIFICATION_TYPE": "U", "NORAD_CAT_ID": 42950, "ELEMENT_SET_NO": 999, "REV_AT_EPOCH": 3017, "BSTAR": 0, "MEAN_MOTION_DOT": -1.37e-06, "MEAN_MOTION_DDOT": 0}, "tle": {"line1": "1 42950U 17059A   25344.84600367 -.00000137  00000+0  00000+0 0  9994", "line2": "2 42950   0.0189 332.7984 0003247 288.7802 104.7992  1.00264813 30175"}}, "geometry": {"type": "Point", "coordinates": [167.80247921258942, -0.008403267825045265]}}, {"type": "Feature", "properties": {"norad_id": 43632, "name": "AZERSPACE 2 (IS-38)", "group": "intelsat", "lat": -0.030309048741932625, "lon": -129.05566538959783, "alt_km": 35781.10812339327, "timestamp": "2025-12-11T07:02:23.401772+00:00", "meta": {"OBJECT_NAME": "AZERSPACE 2 (IS-38)", "OBJECT_ID": "2018-074A", "EPOCH": "2025-12-10T20:37:57.751680", "MEAN_MOTION": 1.00271379, "ECCENTRICITY": 0.00014693, "INCLINATION": 0.0176, "RA_OF_ASC_NODE": 358.3835, "ARG_OF_PERICENTER": 268.4691, "MEAN_ANOMALY": 167.5717, "EPHEMERIS_TYPE": 0, "CLASSIFICATION_TYPE": "U", "NORAD_CAT_ID": 43632, "ELEMENT_SET_NO": 999, "REV_AT_EPOCH": 2655, "BSTAR": 0, "MEAN_MOTION_DOT": 1.41e-06, "MEAN_MOTION_DDOT": 0}, "tle": {"line1": "1 43632U 18074A   25344.85969620  .00000141  00000+0  00000+0 0  9995", "line2": "2 43632   0.0176 358.3835 0001469 268.4691 167.5717  1.00271379 26557"}}, "geometry": {"type": "Point", "coordinates": [-129.05566538959783, -0.030309048741932625]}}, {"type": "Feature", "properties": {"norad_id": 43633, "name": "HORIZONS-3E", "group": "intelsat", "lat": 0.017668066712968784, "lon": -5.132324356984354, "alt_km": 35785.47430013536, "timestamp": "2025-12-11T07:02:23.401784+00:00", "meta": {"OBJECT_NAME": "HORIZONS-3E", "OBJECT_ID": "2018-074B", "EPOCH": "2025-12-10T19:28:56.939232", "MEAN_MOTION": 1.00269493, "ECCENTRICITY": 0.0001199, "INCLINATION": 0.0426, "RA_OF_ASC_NODE": 178.6641, "ARG_OF_PERICENTER": 100.4377, "MEAN_ANOMALY": 261.9253, "EPHEMERIS_TYPE": 0, "CLASSIFICATION_TYPE": "U", "NORAD_CAT_ID": 43633, "ELEMENT_SET_NO": 999, "REV_AT_EPOCH": 2645, "BSTAR": 0, "MEAN_MOTION_DOT": -2.6e-07, "MEAN_MOTION_DDOT": 0}, "tle": {"line1": "1 43633U 18074B   25344.81177013 -.00000026  00000+0  00000+0 0  9992", "line2": "2 43633   0.0426 178.6641 0001199 100.4377 261.9253  1.00269493 26457"}}, "geometry": {"type": "Point", "coordinates": [-5.132324356984354, 0.017668066712968784]}}, {"type": "Feature", "properties": {"norad_id": 44333, "name": "AT&T T-16", "group": "intelsat", "lat": 0.020663105471489838, "lon": 84.96655038950351, "alt_km": 35785.987087705624, "timestamp": "2025-12-11T07:02:23.401795+00:00", "meta": {"OBJECT_NAME": "AT&T T-16", "OBJECT_ID": "2019-034A", "EPOCH": "2025-12-10T19:54:39.477312", "MEAN_MOTION": 1.00268617, "ECCENTRICITY": 5.152e-05, "INCLINATION": 0.0295, "RA_OF_ASC_NODE": 73.7862, "ARG_OF_PERICENTER": 74.0996, "MEAN_ANOMALY": 129.705, "EPHEMERIS_TYPE": 0, "CLASSIFICATION_TYPE": "U", "NORAD_CAT_ID": 44333, "ELEMENT_SET_NO": 999, "REV_AT_EPOCH": 2374, "BSTAR": 0, "MEAN_MOTION_DOT": -1.1e-06, "MEAN_MOTION_DDOT": 0}, "tle": {"line1": "1 44333U 19034A   25344.82962358 -.00000110  00000+0  00000+0 0  9996", "line2": "2 44333   0.0295  73.7862 0000515  74.0996 129.7050  1.00268617 23745"}}, "geometry": {"type": "Point", "coordinates": [84.96655038950351, 0.020663105471489838]}}]}